NORAD_CAT_ID,OBJECT_NAME,OBJECT_TYPE,EPOCH,MEAN_MOTION,ECCENTRICITY,INCLINATION,RA_OF_ASC_NODE,ARG_OF_PERICENTER,MEAN_ANOMALY,BSTAR,MEAN_MOTION_DOT,MEAN_MOTION_DDOT,TLE_LINE0,TLE_LINE1,TLE_LINE2,SEMIMAJOR_AXIS,PERIOD,APOGEE,PERIGEE,DECAYED
50181.0,STARLINK-3285,PAYLOAD,2023-10-04 17:11:03,15.08841523,0.0001442,53.2162,270.9083,98.7916,261.3239,0.00010083,1.317e-05,0.0,0 STARLINK-3285,1 50181U 21125AB  23277.71600785  .00001317  00000-0  10083-3 0  9998,2 50181  53.2162 270.9083 0001442  98.7916 261.3239 15.08841523102709,6917.876,95.437,540.738,538.743,0.0
50181.0,STARLINK-3285,PAYLOAD,2023-10-05 09:04:53,15.08853108,0.0001553,53.2141,267.9359,96.2768,263.8401,0.00016628,2.36e-05,0.0,0 STARLINK-3285,1 50181U 21125AB  23278.37840082  .00002360  00000-0  16628-3 0  9997,2 50181  53.2141 267.9359 0001553  96.2768 263.8401 15.08853108102316,6917.84,95.437,540.78,538.631,0.0
50181.0,STARLINK-3285,PAYLOAD,2023-10-06 04:09:31,15.08844899,0.0001582,53.2145,264.3673,101.7464,258.3705,0.00021413,3.122e-05,0.0,0 STARLINK-3285,1 50181U 21125AB  23279.17328512  .00003122  00000-0  21413-3 0  9990,2 50181  53.2145 264.3673 0001582 101.7464 258.3705 15.08844899102433,6917.865,95.437,540.825,538.636,0.0
50181.0,STARLINK-3285,PAYLOAD,2023-10-06 08:55:41,15.08850729,0.0001521,53.2148,263.4753,98.3784,261.7381,0.00032,4.81e-05,0.0,0 STARLINK-3285,1 50181U 21125AB  23279.37200284  .00004810  00000-0  32000-3 0  9996,2 50181  53.2148 263.4753 0001521  98.3784 261.7381 15.08850729102958,6917.848,95.437,540.765,538.66,0.0
50181.0,STARLINK-3285,PAYLOAD,2023-10-06 23:14:09,15.08840459,0.0002088,53.2152,260.7974,103.7053,256.4171,6.7662e-05,7.89e-06,0.0,0 STARLINK-3285,1 50181U 21125AB  23279.96816591  .00000789  00000-0  67662-4 0  9999,2 50181  53.2152 260.7974 0002088 103.7053 256.4171 15.08840459102550,6917.879,95.438,541.188,538.3,0.0
50181.0,STARLINK-3285,PAYLOAD,2023-10-07 08:46:28,15.08841227,0.000151,53.2164,259.0142,90.8768,269.2398,0.00020869,3.035e-05,0.0,0 STARLINK-3285,1 50181U 21125AB  23280.36560721  .00003035  00000-0  20869-3 0  9990,2 50181  53.2164 259.0142 0001510  90.8768 269.2398 15.08841227103108,6917.877,95.437,540.786,538.697,0.0
50181.0,STARLINK-3285,PAYLOAD,2023-10-07 15:08:01,15.08835479,0.0001537,53.2162,257.8247,91.9925,268.1243,0.00014698,2.052e-05,0.0,0 STARLINK-3285,1 50181U 21125AB  23280.63057061  .00002052  00000-0  14698-3 0  9999,2 50181  53.2162 257.8247 0001537  91.9925 268.1243 15.08835479102652,6917.894,95.438,540.822,538.696,0.0
50181.0,STARLINK-3285,PAYLOAD,2023-10-08 07:01:52,15.08853081,0.0001507,53.2151,254.8524,98.5851,261.5312,0.0005295,8.152e-05,0.0,0 STARLINK-3285,1 50181U 21125AB  23281.29296589  .00008152  00000-0  52950-3 0  9992,2 50181  53.2151 254.8524 0001507  98.5851 261.5312 15.08853081102757,6917.84,95.437,540.748,538.663,0.0
50181.0,STARLINK-3285,PAYLOAD,2023-10-08 14:58:48,15.08848479,0.0001336,53.2157,253.3655,91.9576,268.1569,0.0005158,7.932e-05,0.0,0 STARLINK-3285,1 50181U 21125AB  23281.62416779  .00007932  00000-0  51580-3 0  9997,2 50181  53.2157 253.3655 0001336  91.9576 268.1569 15.08848479102801,6917.854,95.437,540.644,538.795,0.0
50181.0,STARLINK-3285,PAYLOAD,2023-10-09 02:06:30,15.08839784,0.00016,53.2162,251.2839,98.6524,261.465,3.993e-05,3.48e-06,0.0,0 STARLINK-3285,1 50181U 21125AB  23282.08784917  .00000348  00000-0  39930-4 0  9990,2 50181  53.2162 251.2839 0001600  98.6524 261.4650 15.08839784102872,6917.881,95.438,540.853,538.639,0.0
50181.0,STARLINK-3285,PAYLOAD,2023-10-09 06:52:39,15.08847201,0.0001521,53.2165,250.3932,91.0738,269.0429,0.00020828,3.029e-05,0.0,0 STARLINK-3285,1 50181U 21125AB  23282.28656693  .00003029  00000-0  20828-3 0  9995,2 50181  53.2165 250.3932 0001521  91.0738 269.0429 15.08847201103394,6917.858,95.437,540.776,538.671,0.0
50181.0,STARLINK-3285,PAYLOAD,2023-10-09 14:49:35,15.08836823,0.0001717,53.2162,248.9037,87.3048,272.8141,-1.2337e-06,-3.08e-06,0.0,0 STARLINK-3285,1 50181U 21125AB  23282.61777150 -.00000308  00000-0 -12337-5 0  9991,2 50181  53.2162 248.9037 0001717  87.3048 272.8141 15.08836823103446,6917.89,95.438,540.943,538.567,0.0
50181.0,STARLINK-3285,PAYLOAD,2023-10-10 08:18:49,15.08850254,0.0001382,53.2149,245.6324,105.6983,254.4162,0.00032008,4.811e-05,0.0,0 STARLINK-3285,1 50181U 21125AB  23283.34640423  .00004811  00000-0  32008-3 0  9990,2 50181  53.2149 245.6324 0001382 105.6983 254.4162 15.08850254103065,6917.849,95.437,540.67,538.758,0.0
50181.0,STARLINK-3285,PAYLOAD,2023-10-10 21:01:55,15.08837037,0.0002201,53.2136,243.2558,87.2553,272.8691,0.00012677,1.73e-05,0.0,0 STARLINK-3285,1 50181U 21125AB  23283.87633492  .00001730  00000-0  12677-3 0  9993,2 50181  53.2136 243.2558 0002201  87.2553 272.8691 15.08837037103147,6917.889,95.438,541.277,538.232,0.0
50181.0,STARLINK-3285,PAYLOAD,2023-10-11 06:34:14,15.08831715,0.0001568,53.2152,241.4712,92.4501,267.6671,5.9788e-05,6.63e-06,0.0,0 STARLINK-3285,1 50181U 21125AB  23284.27377811  .00000663  00000-0  59788-4 0  9997,2 50181  53.2152 241.4712 0001568  92.4501 267.6671 15.08831715103690,6917.906,95.438,540.855,538.686,0.0
50181.0,STARLINK-3285,PAYLOAD,2023-10-11 14:31:10,15.0883187,0.0001665,53.2152,239.9843,89.9224,270.1958,0.00016157,2.284e-05,0.0,0 STARLINK-3285,1 50181U 21125AB  23284.60498200  .00002284  00000-0  16157-3 0  9993,2 50181  53.2152 239.9843 0001665  89.9224 270.1958 15.08831870103259,6917.905,95.438,540.922,538.618,0.0
50181.0,STARLINK-3285,PAYLOAD,2023-10-12 06:25:01,15.08847229,0.0001411,53.2145,237.0087,99.3423,260.7729,0.00075036,0.00011677,0.0,0 STARLINK-3285,1 50181U 21125AB  23285.26738054  .00011677  00000-0  75036-3 0  9997,2 50181  53.2145 237.0087 0001411  99.3423 260.7729 15.08847229103846,6917.858,95.437,540.699,538.747,0.0
50181.0,STARLINK-3285,PAYLOAD,2023-10-13 03:05:02,15.08850904,0.0001575,53.2163,233.1447,87.2137,272.9035,0.00052392,8.062e-05,0.0,0 STARLINK-3285,1 50181U 21125AB  23286.12850163  .00008062  00000-0  52392-3 0  9993,2 50181  53.2163 233.1447 0001575  87.2137 272.9035 15.08850904103481,6917.847,95.437,540.802,538.622,0.0
50181.0,STARLINK-3285,PAYLOAD,2023-10-13 06:15:48,15.08855168,0.0001734,53.2158,232.5485,91.6893,268.4298,0.00058509,9.04e-05,0.0,0 STARLINK-3285,1 50181U 21125AB  23286.26097982  .00009040  00000-0  58509-3 0  9993,2 50181  53.2158 232.5485 0001734  91.6893 268.4298 15.08855168103999,6917.834,95.437,540.899,538.499,0.0
50181.0,STARLINK-3285,PAYLOAD,2023-10-14 06:06:34,15.08864796,0.0001621,53.2167,228.0857,101.5882,258.5292,0.00079174,0.00012343,0.0,0 STARLINK-3285,1 50181U 21125AB  23287.25456994  .00012343  00000-0  79174-3 0  9996,2 50181  53.2167 228.0857 0001621 101.5882 258.5292 15.08864796103650,6917.805,95.436,540.791,538.548,0.0
50181.0,STARLINK-3285,PAYLOAD,2023-10-14 20:25:03,15.08837763,0.0002304,53.2164,225.4088,97.6253,262.5001,-0.00010136,-1.901e-05,0.0,0 STARLINK-3285,1 50181U 21125AB  23287.85073862 -.00001901  00000-0 -10136-3 0  9994,2 50181  53.2164 225.4088 0002304  97.6253 262.5001 15.08837763103747,6917.887,95.438,541.346,538.158,0.0
50181.0,STARLINK-3285,PAYLOAD,2023-10-15 12:18:55,15.08834997,0.0001439,53.2168,222.437,90.416,269.6997,-1.1964e-05,-4.78e-06,0.0,0 STARLINK-3285,1 50181U 21125AB  23288.51314346 -.00000478  00000-0 -11964-4 0  9992,2 50181  53.2168 222.4370 0001439  90.4160 269.6997 15.08834997104332,6917.896,95.438,540.756,538.765,0.0
50181.0,STARLINK-3285,PAYLOAD,2023-10-15 20:15:51,15.08839859,0.0001274,53.2161,220.9508,83.6245,276.4892,2.0469e-05,3.8e-07,0.0,0 STARLINK-3285,1 50181U 21125AB  23288.84434290  .00000038  00000-0  20469-4 0  9999,2 50181  53.2161 220.9508 0001274  83.6245 276.4892 15.08839859104383,6917.881,95.438,540.627,538.864,0.0
50181.0,STARLINK-3285,PAYLOAD,2023-10-16 05:48:09,15.08860621,0.0001258,53.2162,219.169,87.9088,272.2049,0.00099537,0.00015598,0.0,0 STARLINK-3285,1 50181U 21125AB  23289.24178039  .00015598  00000-0  99537-3 0  9998,2 50181  53.2162 219.1690 0001258  87.9088 272.2049 15.08860621103951,6917.817,95.436,540.553,538.812,0.0
50181.0,STARLINK-3285,PAYLOAD,2023-10-16 12:09:42,15.08854429,0.0001322,53.2161,217.9799,75.1143,284.9996,0.00048605,7.459e-05,0.0,0 STARLINK-3285,1 50181U 21125AB  23289.50674148  .00007459  00000-0  48605-3 0  9996,2 50181  53.2161 217.9799 0001322  75.1143 284.9996 15.08854429103993,6917.836,95.437,540.616,538.787,0.0
50181.0,STARLINK-3285,PAYLOAD,2023-10-17 12:00:29,15.08836293,0.000187,53.2169,213.5184,81.0339,279.0865,-2.9238e-05,-7.53e-06,0.0,0 STARLINK-3285,1 50181U 21125AB  23290.50034688 -.00000753  00000-0 -29238-4 0  9991,2 50181  53.2169 213.5184 0001870  81.0339 279.0865 15.08836293104149,6917.892,95.438,541.05,538.463,0.0
50181.0,STARLINK-3285,PAYLOAD,2023-10-18 02:18:57,15.08846528,0.0001621,53.2172,210.8419,80.5366,279.581,0.00014395,2.004e-05,0.0,0 STARLINK-3285,1 50181U 21125AB  23291.09650379  .00002004  00000-0  14395-3 0  9993,2 50181  53.2172 210.8419 0001621  80.5366 279.5810 15.08846528104723,6917.86,95.437,540.847,538.604,0.0
50181.0,STARLINK-3285,PAYLOAD,2023-10-18 11:51:16,15.08845859,0.0001681,53.217,209.0564,78.4881,281.63,0.00013215,1.816e-05,0.0,0 STARLINK-3285,1 50181U 21125AB  23291.49394402  .00001816  00000-0  13215-3 0  9999,2 50181  53.2170 209.0564 0001681  78.4881 281.6300 15.08845859104292,6917.862,95.437,540.89,538.565,0.0
50181.0,STARLINK-3285,PAYLOAD,2023-10-19 03:45:07,15.08856466,0.0001549,53.2169,206.0829,83.365,276.7519,0.00039485,6.004e-05,0.0,0 STARLINK-3285,1 50181U 21125AB  23292.15633906  .00006004  00000-0  39485-3 0  9999,2 50181  53.2169 206.0829 0001549  83.3650 276.7519 15.08856466104881,6917.83,95.437,540.767,538.623,0.0
50181.0,STARLINK-3285,PAYLOAD,2023-10-20 03:35:54,15.08860247,0.000165,53.2162,201.6209,106.0943,254.0231,0.00032107,4.828e-05,0.0,0 STARLINK-3285,1 50181U 21125AB  23293.14993246  .00004828  00000-0  32107-3 0  9991,2 50181  53.2162 201.6209 0001650 106.0943 254.0231 15.08860247104543,6917.819,95.436,540.825,538.542,0.0
